[{"OBJECT_NAME":"FLOCK 4G-26","OBJECT_ID":"2025-009AA","EPOCH":"2026-03-09T19:19:02.910720","MEAN_MOTION":15.27281631,"ECCENTRICITY":0.0001988,"INCLINATION":97.4054,"RA_OF_ASC_NODE":151.3913,"ARG_OF_PERICENTER":299.1273,"MEAN_ANOMALY":60.9767,"EPHEMERIS_TYPE":0,"CLASSIFICATION_TYPE":"U","NORAD_CAT_ID":62633,"ELEMENT_SET_NO":999,"REV_AT_EPOCH":6373,"BSTAR":0.00042468806,"MEAN_MOTION_DOT":0.00011283,"MEAN_MOTION_DDOT":0},{"OBJECT_NAME":"STARLINK-35975","OBJECT_ID":"2025-265K","EPOCH":"2026-03-09T22:47:00.148128","MEAN_MOTION":15.27600436,"ECCENTRICITY":5.741e-5,"INCLINATION":42.9929,"RA_OF_ASC_NODE":276.432,"ARG_OF_PERICENTER":45.6802,"MEAN_ANOMALY":314.4097,"EPHEMERIS_TYPE":0,"CLASSIFICATION_TYPE":"U","NORAD_CAT_ID":66525,"ELEMENT_SET_NO":999,"REV_AT_EPOCH":1715,"BSTAR":0.0013094902,"MEAN_MOTION_DOT":0.00035971,"MEAN_MOTION_DDOT":0}]
